STARLINK-33742          
1 63366U 25063D   26068.37728166  .00037156  00000+0  12602-2 0  9996
2 63366  53.1595  53.7714 0001342  80.6769 279.4384 15.30203480 54661
KUIPER-00208            
1 67775U 26030M   26068.67231509  .00043852  00000+0  13883-2 0  9994
2 67775  51.8846 219.6993 0015525  57.3146 302.9333 15.32208734  5080
